ONEWEB-0267             
1 48985U 21060U   24273.45780257  .00000185  00000+0  45027-3 0  9993
2 48985  87.9170 353.4002 0002079 110.4712 249.6642 13.16595386157259
ONEWEB-0268             
1 48986U 21060V   24273.65412751  .00000056  00000+0  11239-3 0  9992
2 48986  87.9167 353.3674 0001789 105.4474 254.6854 13.16594015157547
ONEWEB-0269             
1 48987U 21060W   24273.48313568  .00000070  00000+0  14894-3 0  9996
2 48987  87.9173 353.4297 0001836 100.5989 259.5349 13.16593936157293
ONEWEB-0270             
1 48988U 21060X   24273.65254250  .00000027  00000+0  37248-4 0  9999
2 48988  87.9167 353.3747 0002428 106.8855 253.2542 13.16595562157355
ONEWEB-0271             
1 48989U 21060Y   24273.48788809  .00000102  00000+0  23294-3 0  9992
2 48989  87.9170 353.3851 0002132 109.9313 250.2048 13.16594743157337
ONEWEB-0272             
1 48990U 21060Z   24273.51005026  .00000084  00000+0  18632-3 0  9990
2 48990  87.9169 353.4108 0002036 108.2685 251.8668 13.16595230157281
ONEWEB-0273             
1 48991U 21060AA  24273.45621864  .00000185  00000+0  45139-3 0  9992
2 48991  87.9173 353.4079 0002105 100.8084 259.3284 13.16593913157252
